start=new Date('2023-01-08T00:00:00.000Z').valueOf();
sats=[{"TLE_LINE2":"2 53005  53.2169 248.0007 0001842  63.3288 296.7892 15.08827758 28180","FILE":"3735488","MEAN_MOTION_DOT":"0.00001733","ECCENTRICITY":"0.00018420","ARG_OF_PERICENTER":"63.3288","CLASSIFICATION_TYPE":"U","OBJECT_ID":"2022-076V","MEAN_ELEMENT_THEORY":"SGP4","EPHEMERIS_TYPE":"0","EPOCH":"2023-01-07T17:03:38.578752","REF_FRAME":"TEME","APOAPSIS":"541.057","REV_AT_EPOCH":"2818","PERIAPSIS":"538.509","TLE_LINE1":"1 53005U 22076V   23007.71086318  .00001733  00000-0  12698-3 0  9999","INCLINATION":"53.2169","BSTAR":"0.00012698000000","LAUNCH_DATE":"2022-07-07","NORAD_CAT_ID":"53005","DECAY_DATE":null,"OBJECT_TYPE":"PAYLOAD","SITE":"AFETR","MEAN_ANOMALY":"296.7892","RCS_SIZE":"LARGE","CENTER_NAME":"EARTH","GP_ID":"222426775","SEMIMAJOR_AXIS":"6917.918","RA_OF_ASC_NODE":"248.0007","ELEMENT_SET_NO":"999","MEAN_MOTION":"15.08827758","PERIOD":"95.438","MEAN_MOTION_DDOT":"0.0000000000000","TIME_SYSTEM":"UTC","COUNTRY_CODE":"US","OBJECT_NAME":"STARLINK-4288"},{"APOAPSIS":"541.462","REV_AT_EPOCH":"2868","REF_FRAME":"TEME","TLE_LINE1":"1 53006U 22076W   23007.91694262  .00005404  00000-0  35751-3 0  9999","PERIAPSIS":"538.128","EPOCH":"2023-01-07T22:00:23.842368","EPHEMERIS_TYPE":"0","MEAN_ELEMENT_THEORY":"SGP4","OBJECT_ID":"2022-076W","CLASSIFICATION_TYPE":"U","ARG_OF_PERICENTER":"33.8815","MEAN_MOTION_DOT":"0.00005404","ECCENTRICITY":"0.00024100","TLE_LINE2":"2 53006  53.2169 247.0785 0002410  33.8815 326.2330 15.08823853 28686","FILE":"3735427","BSTAR":"0.00035751000000","INCLINATION":"53.2169","SEMIMAJOR_AXIS":"6917.930","RA_OF_ASC_NODE":"247.0785","CENTER_NAME":"EARTH","GP_ID":"222400721","RCS_SIZE":"LARGE","MEAN_ANOMALY":"326.2330","SITE":"AFETR","OBJECT_TYPE":"PAYLOAD","NORAD_CAT_ID":"53006","LAUNCH_DATE":"2022-07-07","DECAY_DATE":null,"OBJECT_NAME":"STARLINK-4290","COUNTRY_CODE":"US","PERIOD":"95.439","TIME_SYSTEM":"UTC","MEAN_MOTION_DDOT":"0.0000000000000","ELEMENT_SET_NO":"999","MEAN_MOTION":"15.08823853"},{"OBJECT_NAME":"STARLINK-4215","TIME_SYSTEM":"UTC","MEAN_MOTION_DDOT":"0.0000000000000","PERIOD":"95.438","COUNTRY_CODE":"US","MEAN_MOTION":"15.08837508","ELEMENT_SET_NO":"999","GP_ID":"222425857","CENTER_NAME":"EARTH","RA_OF_ASC_NODE":"247.7390","SEMIMAJOR_AXIS":"6917.888","SITE":"AFETR","MEAN_ANOMALY":"325.7644","RCS_SIZE":"LARGE","OBJECT_TYPE":"PAYLOAD","DECAY_DATE":null,"NORAD_CAT_ID":"53007","LAUNCH_DATE":"2022-07-07","BSTAR":"0.00046792000000","INCLINATION":"53.2173","EPOCH":"2023-01-07T18:28:24.808512","TLE_LINE1":"1 53007U 22076X   23007.76973158  .00007166  00000-0  46792-3 0  9991","PERIAPSIS":"538.087","REF_FRAME":"TEME","APOAPSIS":"541.419","REV_AT_EPOCH":"2819","OBJECT_ID":"2022-076X","MEAN_ELEMENT_THEORY":"SGP4","EPHEMERIS_TYPE":"0","ARG_OF_PERICENTER":"34.3504","CLASSIFICATION_TYPE":"U","FILE":"3735488","TLE_LINE2":"2 53007  53.2173 247.7390 0002408  34.3504 325.7644 15.08837508 28199","ECCENTRICITY":"0.00024080","MEAN_MOTION_DOT":"0.00007166"},{"INCLINATION":"53.2160","BSTAR":"0.00062972000000","FILE":"3735488","TLE_LINE2":"2 53008  53.2160 249.4973 0002070  44.2028 315.9129 15.08841947 28133","MEAN_MOTION_DOT":"0.00009749","ECCENTRICITY":"0.00020700","ARG_OF_PERICENTER":"44.2028","CLASSIFICATION_TYPE":"U","MEAN_ELEMENT_THEORY":"SGP4","OBJECT_ID":"2022-076Y","EPHEMERIS_TYPE":"0","EPOCH":"2023-01-07T09:02:45.615840","TLE_LINE1":"1 53008U 22076Y   23007.37691685  .00009749  00000-0  62972-3 0  9998","PERIAPSIS":"538.307","APOAPSIS":"541.171","REF_FRAME":"TEME","REV_AT_EPOCH":"2813","MEAN_MOTION":"15.08841947","ELEMENT_SET_NO":"999","MEAN_MOTION_DDOT":"0.0000000000000","TIME_SYSTEM":"UTC","PERIOD":"95.437","COUNTRY_CODE":"US","OBJECT_NAME":"STARLINK-4275","DECAY_DATE":null,"NORAD_CAT_ID":"53008","LAUNCH_DATE":"2022-07-07","OBJECT_TYPE":"PAYLOAD","SITE":"AFETR","MEAN_ANOMALY":"315.9129","RCS_SIZE":"LARGE","GP_ID":"222426548","CENTER_NAME":"EARTH","RA_OF_ASC_NODE":"249.4973","SEMIMAJOR_AXIS":"6917.874"},{"ARG_OF_PERICENTER":"35.8517","CLASSIFICATION_TYPE":"U","FILE":"3735427","TLE_LINE2":"2 53009  53.2149 237.2041 0002472  35.8517 324.2641 15.08820245 28812","MEAN_MOTION_DOT":"0.00000176","ECCENTRICITY":"0.00024720","EPOCH":"2023-01-07T21:19:19.120800","TLE_LINE1":"1 53009U 22076Z   23007.88841575  .00000176  00000-0  29211-4 0  9995","PERIAPSIS":"538.096","APOAPSIS":"541.516","REF_FRAME":"TEME","REV_AT_EPOCH":"2881","MEAN_ELEMENT_THEORY":"SGP4","OBJECT_ID":"2022-076Z","EPHEMERIS_TYPE":"0","INCLINATION":"53.2149","BSTAR":"0.00002921100000","OBJECT_TYPE":"PAYLOAD","DECAY_DATE":null,"LAUNCH_DATE":"2022-07-07","NORAD_CAT_ID":"53009","GP_ID":"222401062","CENTER_NAME":"EARTH","SEMIMAJOR_AXIS":"6917.941","RA_OF_ASC_NODE":"237.2041","SITE":"AFETR","MEAN_ANOMALY":"324.2641","RCS_SIZE":"LARGE","MEAN_MOTION_DDOT":"0.0000000000000","TIME_SYSTEM":"UTC","PERIOD":"95.439","COUNTRY_CODE":"US","MEAN_MOTION":"15.08820245","ELEMENT_SET_NO":"999","OBJECT_NAME":"STARLINK-4277"},{"EPHEMERIS_TYPE":"0","OBJECT_ID":"2022-076AA","MEAN_ELEMENT_THEORY":"SGP4","TLE_LINE1":"1 53010U 22076AA  23007.37595582 -.00000942  00000-0 -41053-4 0  9996","PERIAPSIS":"538.372","REF_FRAME":"TEME","APOAPSIS":"541.038","REV_AT_EPOCH":"2813","EPOCH":"2023-01-07T09:01:22.582848","MEAN_MOTION_DOT":"-0.00000942","ECCENTRICITY":"0.00019270","FILE":"3735488","TLE_LINE2":"2 53010  53.2173 249.4979 0001927  44.0662 316.0484 15.08853144 28136","CLASSIFICATION_TYPE":"U","ARG_OF_PERICENTER":"44.0662","BSTAR":"-0.00004105300000","INCLINATION":"53.2173","RCS_SIZE":"LARGE","MEAN_ANOMALY":"316.0484","SITE":"AFETR","RA_OF_ASC_NODE":"249.4979","SEMIMAJOR_AXIS":"6917.840","CENTER_NAME":"EARTH","GP_ID":"222427461","DECAY_DATE":null,"LAUNCH_DATE":"2022-07-07","NORAD_CAT_ID":"53010","OBJECT_TYPE":"PAYLOAD","OBJECT_NAME":"STARLINK-4263","MEAN_MOTION":"15.08853144","ELEMENT_SET_NO":"999","COUNTRY_CODE":"US","MEAN_MOTION_DDOT":"0.0000000000000","TIME_SYSTEM":"UTC","PERIOD":"95.437"},{"SEMIMAJOR_AXIS":"6917.912","RA_OF_ASC_NODE":"237.2329","CENTER_NAME":"EARTH","GP_ID":"222401109","RCS_SIZE":"LARGE","SITE":"AFETR","MEAN_ANOMALY":"323.6784","OBJECT_TYPE":"PAYLOAD","DECAY_DATE":null,"NORAD_CAT_ID":"53011","LAUNCH_DATE":"2022-07-07","OBJECT_NAME":"STARLINK-4265","COUNTRY_CODE":"US","TIME_SYSTEM":"UTC","MEAN_MOTION_DDOT":"0.0000000000000","PERIOD":"95.438","MEAN_MOTION":"15.08829655","ELEMENT_SET_NO":"999","PERIAPSIS":"538.523","TLE_LINE1":"1 53011U 22076AB  23007.88472918  .00002483  00000-0  17409-3 0  9997","APOAPSIS":"541.031","REV_AT_EPOCH":"2881","REF_FRAME":"TEME","EPOCH":"2023-01-07T21:14:00.601152","EPHEMERIS_TYPE":"0","MEAN_ELEMENT_THEORY":"SGP4","OBJECT_ID":"2022-076AB","CLASSIFICATION_TYPE":"U","ARG_OF_PERICENTER":"36.4331","MEAN_MOTION_DOT":"0.00002483","ECCENTRICITY":"0.00018130","FILE":"3735440","TLE_LINE2":"2 53011  53.2142 237.2329 0001813  36.4331 323.6784 15.08829655 28811","BSTAR":"0.00017409000000","INCLINATION":"53.2142"},{"PERIOD":"95.438","MEAN_MOTION_DDOT":"0.0000000000000","TIME_SYSTEM":"UTC","COUNTRY_CODE":"US","ELEMENT_SET_NO":"999","MEAN_MOTION":"15.08830932","OBJECT_NAME":"STARLINK-4271","OBJECT_TYPE":"PAYLOAD","NORAD_CAT_ID":"53012","LAUNCH_DATE":"2022-07-07","DECAY_DATE":null,"GP_ID":"222426087","CENTER_NAME":"EARTH","RA_OF_ASC_NODE":"247.7602","SEMIMAJOR_AXIS":"6917.908","SITE":"AFETR","MEAN_ANOMALY":"321.0006","RCS_SIZE":"LARGE","INCLINATION":"53.2137","BSTAR":"0.00020901000000","ARG_OF_PERICENTER":"39.1302","CLASSIFICATION_TYPE":"U","TLE_LINE2":"2 53012  53.2137 247.7602 0004381  39.1302 321.0006 15.08830932 28197","FILE":"3735488","MEAN_MOTION_DOT":"0.00003039","ECCENTRICITY":"0.00043810","EPOCH":"2023-01-07T18:23:07.101888","APOAPSIS":"542.804","REV_AT_EPOCH":"2819","REF_FRAME":"TEME","TLE_LINE1":"1 53012U 22076AC  23007.76605442  .00003039  00000-0  20901-3 0  9994","PERIAPSIS":"536.742","OBJECT_ID":"2022-076AC","MEAN_ELEMENT_THEORY":"SGP4","EPHEMERIS_TYPE":"0"},{"REV_AT_EPOCH":"2832","APOAPSIS":"541.203","REF_FRAME":"TEME","PERIAPSIS":"538.408","TLE_LINE1":"1 53013U 22076AD  23007.74489163 -.00003301  00000-0 -18949-3 0  9996","EPOCH":"2023-01-07T17:52:38.636832","EPHEMERIS_TYPE":"0","OBJECT_ID":"2022-076AD","MEAN_ELEMENT_THEORY":"SGP4","CLASSIFICATION_TYPE":"U","ARG_OF_PERICENTER":"40.6272","ECCENTRICITY":"0.00020200","MEAN_MOTION_DOT":"-0.00003301","TLE_LINE2":"2 53013  53.2151 237.8605 0002020  40.6272 319.4871 15.08820400 28323","FILE":"3735488","BSTAR":"-0.00018949000000","INCLINATION":"53.2151","RA_OF_ASC_NODE":"237.8605","SEMIMAJOR_AXIS":"6917.940","GP_ID":"222426776","CENTER_NAME":"EARTH","RCS_SIZE":"LARGE","MEAN_ANOMALY":"319.4871","SITE":"AFETR","OBJECT_TYPE":"PAYLOAD","NORAD_CAT_ID":"53013","LAUNCH_DATE":"2022-07-07","DECAY_DATE":null,"OBJECT_NAME":"STARLINK-4177","COUNTRY_CODE":"US","PERIOD":"95.439","MEAN_MOTION_DDOT":"0.0000000000000","TIME_SYSTEM":"UTC","ELEMENT_SET_NO":"999","MEAN_MOTION":"15.08820400"},{"APOAPSIS":"541.112","REV_AT_EPOCH":"2832","REF_FRAME":"TEME","PERIAPSIS":"538.450","TLE_LINE1":"1 53014U 22076AE  23007.75960660  .00001237  00000-0  95863-4 0  9999","EPOCH":"2023-01-07T18:13:50.010240","EPHEMERIS_TYPE":"0","MEAN_ELEMENT_THEORY":"SGP4","OBJECT_ID":"2022-076AE","CLASSIFICATION_TYPE":"U","ARG_OF_PERICENTER":"46.7974","ECCENTRICITY":"0.00019240","MEAN_MOTION_DOT":"0.00001237","TLE_LINE2":"2 53014  53.2122 237.7757 0001924  46.7974 313.3178 15.08828503 28322","FILE":"3735488","BSTAR":"0.00009586300000","INCLINATION":"53.2122","RA_OF_ASC_NODE":"237.7757","SEMIMAJOR_AXIS":"6917.916","GP_ID":"222427005","CENTER_NAME":"EARTH","RCS_SIZE":"LARGE","MEAN_ANOMALY":"313.3178","SITE":"AFETR","OBJECT_TYPE":"PAYLOAD","LAUNCH_DATE":"2022-07-07","NORAD_CAT_ID":"53014","DECAY_DATE":null,"OBJECT_NAME":"STARLINK-4183","COUNTRY_CODE":"US","PERIOD":"95.438","MEAN_MOTION_DDOT":"0.0000000000000","TIME_SYSTEM":"UTC","ELEMENT_SET_NO":"999","MEAN_MOTION":"15.08828503"}];
